{
    "type": "FeatureCollection",
    "features": [
        {
            "type": "Feature",
            "properties": {
                "stop_id": "10068",
                "lines": "D19 The Zoo 3697, F5 Fort Rouge Station 3446, F8 University of Manitoba 3704"
            },
            "geometry": {
                "type": "Point",
                "coordinates": [
                    -97.142801343363,
                    49.87456972006579
                ]
            }
        },
        {
            "type": "Feature",
            "properties": {
                "stop_id": "10289",
                "lines": "224 Polo Park 3517, D18 RRC Polytech 3695"
            },
            "geometry": {
                "type": "Point",
                "coordinates": [
                    -97.16602963516232,
                    49.906935303646115
                ]
            }
        },
        {
            "type": "Feature",
            "properties": {
                "stop_id": "10290",
                "lines": "D18 Downtown 3696, 224 Tecumseh Loop 3291, 28 Templeton Walmart 3604"
            },
            "geometry": {
                "type": "Point",
                "coordinates": [
                    -97.16554648511213,
                    49.907188503829126
                ]
            }
        },
        {
            "type": "Feature",
            "properties": {
                "stop_id": "10552",
                "lines": "BLUE Assiniboine Park 3691, D14 Wall Street 3666, D15 Unicity 3425, FX4 Polo Park 3554"
            },
            "geometry": {
                "type": "Point",
                "coordinates": [
                    -97.17087142086301,
                    49.88534296146702
                ]
            }
        },
        {
            "type": "Feature",
            "properties": {
                "stop_id": "10573",
                "lines": "D15 Sage Creek 3563, BLUE Downtown 3692, FX4 Downtown 3551, D15 Downtown 3426"
            },
            "geometry": {
                "type": "Point",
                "coordinates": [
                    -97.1695611974742,
                    49.88538521690363
                ]
            }
        },
        {
            "type": "Feature",
            "properties": {
                "stop_id": "10600",
                "lines": "D19 The Zoo 3697, F6 South St. Vital 3452"
            },
            "geometry": {
                "type": "Point",
                "coordinates": [
                    -97.14885564244786,
                    49.88331093020371
                ]
            }
        },
        {
            "type": "Feature",
            "properties": {
                "stop_id": "10639",
                "lines": "FX3 Sturgeon & Murray Park 3480, BLUE Downtown 3692, FX3 Downtown 3671, FX2 St. Vital Centre 3667"
            },
            "geometry": {
                "type": "Point",
                "coordinates": [
                    -97.13643474615122,
                    49.89135108397374
                ]
            }
        },
        {
            "type": "Feature",
            "properties": {
                "stop_id": "10733",
                "lines": "D11 Downtown 3413, D18 RRC Polytech 3695"
            },
            "geometry": {
                "type": "Point",
                "coordinates": [
                    -97.15224600207742,
                    49.903163119252
                ]
            }
        },
        {
            "type": "Feature",
            "properties": {
                "stop_id": "10803",
                "lines": "D13 The Forks 3419, F7 Creek Bend 3572, D12 The Forks 3416, D16 Polo Park 3693, FX4 Gateway at McLeod 3705, FX4 Raleigh & Knowles 3486"
            },
            "geometry": {
                "type": "Point",
                "coordinates": [
                    -97.13296906744426,
                    49.89240162889352
                ]
            }
        },
        {
            "type": "Feature",
            "properties": {
                "stop_id": "10904",
                "lines": "895 Riverview 3389, 895 Jubilee Station 3390"
            },
            "geometry": {
                "type": "Point",
                "coordinates": [
                    -97.12039141711189,
                    49.868505104419576
                ]
            }
        },
        {
            "type": "Feature",
            "properties": {
                "stop_id": "17007",
                "lines": "BLUE Downtown 3394, BLUE Downtown 3399, D12 The Airport 3417, BLUE Assiniboine Park 3691, D13 The Airport 3418, F7 Broadway & Portage 3701"
            },
            "geometry": {
                "type": "Point",
                "coordinates": [
                    -97.13848198630971,
                    49.89314704805488
                ]
            }
        },
        {
            "type": "Feature",
            "properties": {
                "stop_id": "20034",
                "lines": "881 North Inkster Industrial 3369, 43 Downtown 3596"
            },
            "geometry": {
                "type": "Point",
                "coordinates": [
                    -97.20658671088674,
                    49.917087260299986
                ]
            }
        },
        {
            "type": "Feature",
            "properties": {
                "stop_id": "20264",
                "lines": "22 Polo Park 3234, FX3 Downtown 3578"
            },
            "geometry": {
                "type": "Point",
                "coordinates": [
                    -97.2729746095716,
                    49.87784418188968
                ]
            }
        },
        {
            "type": "Feature",
            "properties": {
                "stop_id": "20438",
                "lines": "220 Rouge & Assiniboine 3282, 885 Unicity 3379, 883 Saskatchewan Loop 3371"
            },
            "geometry": {
                "type": "Point",
                "coordinates": [
                    -97.27382072573633,
                    49.87909810053848
                ]
            }
        },
        {
            "type": "Feature",
            "properties": {
                "stop_id": "20469",
                "lines": "883 Grace Hospital 3372, 885 Ronald & Portage 3377"
            },
            "geometry": {
                "type": "Point",
                "coordinates": [
                    -97.27574864688034,
                    49.88163641285933
                ]
            }
        },
        {
            "type": "Feature",
            "properties": {
                "stop_id": "20600",
                "lines": "22 Unicity 3233, 223 Lumsden 3516, 220 St. Charles 3279, 70 Unicity 3262, D15 Unicity 3425, BLUE Unicity Shopping Centre 3405, 885 Unicity 3379, 223 Westdale 3513"
            },
            "geometry": {
                "type": "Point",
                "coordinates": [
                    -97.31391011881507,
                    49.882666146366944
                ]
            }
        },
        {
            "type": "Feature",
            "properties": {
                "stop_id": "21020",
                "lines": "43 RRC Polytech 3255, D18 RRC Polytech 3695, 881 RRC Polytech 3370, D17 RRC Polytech 3439, 74 Polo Park 3269"
            },
            "geometry": {
                "type": "Point",
                "coordinates": [
                    -97.20760914224869,
                    49.91656339523015
                ]
            }
        },
        {
            "type": "Feature",
            "properties": {
                "stop_id": "27001",
                "lines": "224 RRC Polytech 3288, 74 Waterford Green 3271"
            },
            "geometry": {
                "type": "Point",
                "coordinates": [
                    -97.2112445948393,
                    49.91393912221598
                ]
            }
        },
        {
            "type": "Feature",
            "properties": {
                "stop_id": "30043",
                "lines": "FX2 Downtown 3576, 31 The Forks 3496, 37 Cathedral & Main 3498"
            },
            "geometry": {
                "type": "Point",
                "coordinates": [
                    -97.12095523924373,
                    49.933197511498925
                ]
            }
        },
        {
            "type": "Feature",
            "properties": {
                "stop_id": "30095",
                "lines": "FX2 Garden City Centre 3473, 31 Riverbend 3495, D17 Selkirk & McPhillips 3538"
            },
            "geometry": {
                "type": "Point",
                "coordinates": [
                    -97.13293915038895,
                    49.90977052616135
                ]
            }
        },
        {
            "type": "Feature",
            "properties": {
                "stop_id": "30337",
                "lines": "28 Templeton Walmart 3604, 833 Tyndall Park 3368, F5 Garden City Centre 3699"
            },
            "geometry": {
                "type": "Point",
                "coordinates": [
                    -97.16979600050679,
                    49.91892223243031
                ]
            }
        },
        {
            "type": "Feature",
            "properties": {
                "stop_id": "30540",
                "lines": "332 Selkirk & McPhillips 3297, 833 Tecumseh Loop 3367, 336 Fife Loop 3303"
            },
            "geometry": {
                "type": "Point",
                "coordinates": [
                    -97.17407911565624,
                    49.928344603173514
                ]
            }
        },
        {
            "type": "Feature",
            "properties": {
                "stop_id": "30721",
                "lines": "38 Garden City Hub 3251, 332 Garden City Hub 3296, 334 Garden City Hub 3662"
            },
            "geometry": {
                "type": "Point",
                "coordinates": [
                    -97.15117537757145,
                    49.95446229349978
                ]
            }
        },
        {
            "type": "Feature",
            "properties": {
                "stop_id": "30871",
                "lines": "884 Waterford Green 3374, 74 Waterford Green 3271, 334 Waterford Green 3299"
            },
            "geometry": {
                "type": "Point",
                "coordinates": [
                    -97.19501261092485,
                    49.946491718533345
                ]
            }
        },
        {
            "type": "Feature",
            "properties": {
                "stop_id": "30884",
                "lines": "336 Garden City Hub 3302, 330 Garden City Hub 3591, 330 Templeton Walmart 3612, 28 Templeton Walmart 3604"
            },
            "geometry": {
                "type": "Point",
                "coordinates": [
                    -97.1459199131823,
                    49.95553861975429
                ]
            }
        },
        {
            "type": "Feature",
            "properties": {
                "stop_id": "30998",
                "lines": "332 Selkirk & McPhillips 3297, D10 Waterford Green 3409, 39 Waterford Green 3253"
            },
            "geometry": {
                "type": "Point",
                "coordinates": [
                    -97.18818806339215,
                    49.954885334940535
                ]
            }
        },
        {
            "type": "Feature",
            "properties": {
                "stop_id": "31050",
                "lines": "39 Cathedral & Main 3252, 334 Waterford Green 3299"
            },
            "geometry": {
                "type": "Point",
                "coordinates": [
                    -97.16540038810257,
                    49.94259933324875
                ]
            }
        },
        {
            "type": "Feature",
            "properties": {
                "stop_id": "31081",
                "lines": "37 Waterford Green 3497, 336 Dr Jose Rizal 3619"
            },
            "geometry": {
                "type": "Point",
                "coordinates": [
                    -97.19001649416712,
                    49.96077859174827
                ]
            }
        },
        {
            "type": "Feature",
            "properties": {
                "stop_id": "31084",
                "lines": "74 Polo Park 3269, 884 Portage 3373, 334 Garden City Hub 3662"
            },
            "geometry": {
                "type": "Point",
                "coordinates": [
                    -97.1953322779489,
                    49.94875441992647
                ]
            }
        },
        {
            "type": "Feature",
            "properties": {
                "stop_id": "37013",
                "lines": "D11 Templeton & Salter 3412, F6 Templeton & Salter 3451"
            },
            "geometry": {
                "type": "Point",
                "coordinates": [
                    -97.11802147292086,
                    49.94876514153148
                ]
            }
        },
        {
            "type": "Feature",
            "properties": {
                "stop_id": "40196",
                "lines": "FX3 Redonda & Pandora 3481, D17 Kildonan Place 3440, D10 Kildonan Place 3408, 440 Lakeside Meadows 3304, 38 Kildonan Place 3250, FX3 Kildonan Place Hub 3668, F9 Kildonan Place 3468"
            },
            "geometry": {
                "type": "Point",
                "coordinates": [
                    -97.06354748953551,
                    49.897224826064814
                ]
            }
        },
        {
            "type": "Feature",
            "properties": {
                "stop_id": "40295",
                "lines": "43 Gateway 3595, D10 Kildonan Place 3408, 446 Kildonan Place 3312, 330 Levis & Nairn 3295, 330 McLeod & Louelda 3613"
            },
            "geometry": {
                "type": "Point",
                "coordinates": [
                    -97.06401301301152,
                    49.9269882846588
                ]
            }
        },
        {
            "type": "Feature",
            "properties": {
                "stop_id": "40370",
                "lines": "F8 Glenway 3463, 38 Kildonan Place 3250"
            },
            "geometry": {
                "type": "Point",
                "coordinates": [
                    -97.11467288228336,
                    49.914205882574635
                ]
            }
        },
        {
            "type": "Feature",
            "properties": {
                "stop_id": "40890",
                "lines": "444 Summerlea 3598, 446 Whellams Lane 3313, 442 Henderson & Northdale 3688, 48 Redonda & Pandora 3261"
            },
            "geometry": {
                "type": "Point",
                "coordinates": [
                    -97.05040166468727,
                    49.90069213999636
                ]
            }
        },
        {
            "type": "Feature",
            "properties": {
                "stop_id": "40901",
                "lines": "442 Springfield Loop 3309"
            },
            "geometry": {
                "type": "Point",
                "coordinates": [
                    -97.04495808977835,
                    49.931651325084275
                ]
            }
        },
        {
            "type": "Feature",
            "properties": {
                "stop_id": "40903",
                "lines": "446 Kildonan Place 3312, 48 Kildonan Place 3260, 444 Kildonan Place Hub 3600, 442 Kildonan Place Hub 3308"
            },
            "geometry": {
                "type": "Point",
                "coordinates": [
                    -97.04947792384706,
                    49.90218775287386
                ]
            }
        },
        {
            "type": "Feature",
            "properties": {
                "stop_id": "41071",
                "lines": "444 Summerlea 3598, 440 Crossroads Station 3305"
            },
            "geometry": {
                "type": "Point",
                "coordinates": [
                    -97.0256082742525,
                    49.90046976375985
                ]
            }
        },
        {
            "type": "Feature",
            "properties": {
                "stop_id": "41072",
                "lines": "330 Levis & Nairn 3295, 886 Stadacona 3523, D17 Selkirk & McPhillips 3538, 887 Stadacona 3526"
            },
            "geometry": {
                "type": "Point",
                "coordinates": [
                    -97.104799857837,
                    49.90665976103862
                ]
            }
        },
        {
            "type": "Feature",
            "properties": {
                "stop_id": "41074",
                "lines": "551 Paterson & Lagimodiere 3592, 43 Downtown 3258"
            },
            "geometry": {
                "type": "Point",
                "coordinates": [
                    -97.09178071002881,
                    49.922807858400944
                ]
            }
        },
        {
            "type": "Feature",
            "properties": {
                "stop_id": "50103",
                "lines": "557 St.Anne's & Niakwa 3637, D15 Downtown 3564, 558 East Mint 3328, 551 Watt & Leighton 3314, F9 Kildonan Place 3468"
            },
            "geometry": {
                "type": "Point",
                "coordinates": [
                    -97.0785214163151,
                    49.85678952873268
                ]
            }
        },
        {
            "type": "Feature",
            "properties": {
                "stop_id": "50202",
                "lines": "888 Whittier Park 3386, D16 Downtown 3694"
            },
            "geometry": {
                "type": "Point",
                "coordinates": [
                    -97.1233443817361,
                    49.881721793497896
                ]
            }
        },
        {
            "type": "Feature",
            "properties": {
                "stop_id": "50579",
                "lines": "552 Avalon Loop 3319, FX2 Downtown 3575, 558 Avalon Loop 3330"
            },
            "geometry": {
                "type": "Point",
                "coordinates": [
                    -97.11443453222185,
                    49.82740850916384
                ]
            }
        },
        {
            "type": "Feature",
            "properties": {
                "stop_id": "50589",
                "lines": "676 Creek Bend via Burland 3352, 558 East Mint 3328"
            },
            "geometry": {
                "type": "Point",
                "coordinates": [
                    -97.11260784823361,
                    49.81610780984736
                ]
            }
        },
        {
            "type": "Feature",
            "properties": {
                "stop_id": "50617",
                "lines": "552 South St. Vital 3317, 556 Sage Creek 3321"
            },
            "geometry": {
                "type": "Point",
                "coordinates": [
                    -97.10593929470704,
                    49.82774650509266
                ]
            }
        },
        {
            "type": "Feature",
            "properties": {
                "stop_id": "50633",
                "lines": "558 Avalon Loop 3330, D15 Sage Creek 3563, 556 Plaza Dr 3323, F9 University of Manitoba 3464, 557 Sage Creek 3326"
            },
            "geometry": {
                "type": "Point",
                "coordinates": [
                    -97.07262467333635,
                    49.84168756972367
                ]
            }
        },
        {
            "type": "Feature",
            "properties": {
                "stop_id": "50756",
                "lines": "887 St. Boniface Industrial Park 3525, D14 Redonda & Pandora 3665, 886 South Transcona 3524"
            },
            "geometry": {
                "type": "Point",
                "coordinates": [
                    -97.0487216733973,
                    49.88572296351419
                ]
            }
        },
        {
            "type": "Feature",
            "properties": {
                "stop_id": "57013",
                "lines": "F7 Creek Bend 3572, 888 Norwood 3385"
            },
            "geometry": {
                "type": "Point",
                "coordinates": [
                    -97.1209570267003,
                    49.892297219832614
                ]
            }
        },
        {
            "type": "Feature",
            "properties": {
                "stop_id": "60063",
                "lines": "672 University of Manitoba 3346, 91 Baylor & Killarney 3278, 662 University of Manitoba 3339"
            },
            "geometry": {
                "type": "Point",
                "coordinates": [
                    -97.15623807684862,
                    49.78959199016427
                ]
            }
        },
        {
            "type": "Feature",
            "properties": {
                "stop_id": "60105",
                "lines": "F8 Downtown 3622, BLUE Downtown 3399, 671 Prairie Pointe 3522, 672 Prairie Pointe 3345, 889 Tecumseh Loop 3387, 679 Seel Station 3357, 74 Polo Park 3268, 662 Markham Station via Richmond West 3340"
            },
            "geometry": {
                "type": "Point",
                "coordinates": [
                    -97.13652986688429,
                    49.80677180752524
                ]
            }
        },
        {
            "type": "Feature",
            "properties": {
                "stop_id": "60129",
                "lines": "F8 Downtown 3622, 678 South Pointe 3356"
            },
            "geometry": {
                "type": "Point",
                "coordinates": [
                    -97.15194825122246,
                    49.813225741626944
                ]
            }
        },
        {
            "type": "Feature",
            "properties": {
                "stop_id": "60255",
                "lines": "694 Seel Station via Wildwood 3366, D11 Beaumont Station 3414"
            },
            "geometry": {
                "type": "Point",
                "coordinates": [
                    -97.1533906955146,
                    49.847996837492545
                ]
            }
        },
        {
            "type": "Feature",
            "properties": {
                "stop_id": "60284",
                "lines": "680 Polo Park Hub 3360, 664 Stafford & Pembina 3341"
            },
            "geometry": {
                "type": "Point",
                "coordinates": [
                    -97.17773806239191,
                    49.851234176857886
                ]
            }
        },
        {
            "type": "Feature",
            "properties": {
                "stop_id": "60472",
                "lines": "D19 Downtown 3698, 70 Polo Park 3263"
            },
            "geometry": {
                "type": "Point",
                "coordinates": [
                    -97.2288868119566,
                    49.866959829438734
                ]
            }
        },
        {
            "type": "Feature",
            "properties": {
                "stop_id": "60574",
                "lines": "70 Polo Park 3263, 885 Dale & Windmill 3641, 223 Westdale 3513"
            },
            "geometry": {
                "type": "Point",
                "coordinates": [
                    -97.31403120557646,
                    49.8632029282556
                ]
            }
        },
        {
            "type": "Feature",
            "properties": {
                "stop_id": "60805",
                "lines": "91 St. Norbert 3277, BLUE St. Norbert 3391"
            },
            "geometry": {
                "type": "Point",
                "coordinates": [
                    -97.15645627193253,
                    49.76810600919372
                ]
            }
        },
        {
            "type": "Feature",
            "properties": {
                "stop_id": "60908",
                "lines": "642 Henlow & Fultz 3334, 641 Commerce Loop 3332, 650 Seel Station 3337"
            },
            "geometry": {
                "type": "Point",
                "coordinates": [
                    -97.19649490232186,
                    49.825712167032535
                ]
            }
        },
        {
            "type": "Feature",
            "properties": {
                "stop_id": "60962",
                "lines": "691 Seel Station via Chevrier 3363, 690 Seel Station via Fort Garry Industrial Park 3362, 649 Seel Station 3336"
            },
            "geometry": {
                "type": "Point",
                "coordinates": [
                    -97.1802187541845,
                    49.818144362196904
                ]
            }
        },
        {
            "type": "Feature",
            "properties": {
                "stop_id": "61076",
                "lines": "885 Cathcart & Grant 3640"
            },
            "geometry": {
                "type": "Point",
                "coordinates": [
                    -97.25406314861799,
                    49.85493820133337
                ]
            }
        },
        {
            "type": "Feature",
            "properties": {
                "stop_id": "61202",
                "lines": "BLUE Downtown 3394, BLUE Downtown 3399, D11 Downtown 3415, 649 Fort Whyte Alive 3335"
            },
            "geometry": {
                "type": "Point",
                "coordinates": [
                    -97.16543759895691,
                    49.8487281282694
                ]
            }
        },
        {
            "type": "Feature",
            "properties": {
                "stop_id": "61205",
                "lines": "650 Fort Whyte Alive 3338, 690 Kenaston via Fort Garry Industrial Park 3361, 649 Seel Station 3336, 679 University of Manitoba 3358, 691 Whyte Ridge via Scurfield 3364, 642 Henlow & Fultz 3334, BLUE St. Norbert 3391, 680 Polo Park Hub 3360, 694 Fort Garry Industrial Park via 3365, BLUE University of Manitoba 3401"
            },
            "geometry": {
                "type": "Point",
                "coordinates": [
                    -97.16870113905497,
                    49.84224939571472
                ]
            }
        },
        {
            "type": "Feature",
            "properties": {
                "stop_id": "61253",
                "lines": "672 University of Manitoba 3346, F8 University of Manitoba 3704, 671 University of Manitoba 3521, 679 University of Manitoba 3358, 662 University of Manitoba 3339, 889 University of Manitoba 3388, 74 University of Manitoba 3272, F9 University of Manitoba 3464, BLUE University of Manitoba 3401"
            },
            "geometry": {
                "type": "Point",
                "coordinates": [
                    -97.13607079215693,
                    49.80678240311458
                ]
            }
        },
        {
            "type": "Feature",
            "properties": {
                "stop_id": "61275",
                "lines": "678 Markham Station 3355, 676 Bridgwater 3347"
            },
            "geometry": {
                "type": "Point",
                "coordinates": [
                    -97.18481427048006,
                    49.8023311910796
                ]
            }
        },
        {
            "type": "Feature",
            "properties": {
                "stop_id": "61283",
                "lines": "677 Beaumont Station 3354, 641 Beaumont Station 3331"
            },
            "geometry": {
                "type": "Point",
                "coordinates": [
                    -97.17850489350319,
                    49.846748721561546
                ]
            }
        },
        {
            "type": "Feature",
            "properties": {
                "stop_id": "61289",
                "lines": "679 Seel Station 3357, 642 Seel Station 3333, 680 Seel Station 3359, 28 Seel Station 3240"
            },
            "geometry": {
                "type": "Point",
                "coordinates": [
                    -97.17456413261385,
                    49.8398413911904
                ]
            }
        },
        {
            "type": "Feature",
            "properties": {
                "stop_id": "62073",
                "lines": "677 Outlet Mall 3353, 664 Outlet Mall 3342"
            },
            "geometry": {
                "type": "Point",
                "coordinates": [
                    -97.21353656941075,
                    49.84245540720221
                ]
            }
        }
    ]
}